[{"OBJECT_NAME":"STARLINK-4068","OBJECT_ID":"2022-053AB","EPOCH":"2026-03-09T11:29:20.672736","MEAN_MOTION":15.08838363,"ECCENTRICITY":0.00013845,"INCLINATION":53.2176,"RA_OF_ASC_NODE":145.0683,"ARG_OF_PERICENTER":86.5681,"MEAN_ANOMALY":273.5469,"EPHEMERIS_TYPE":0,"CLASSIFICATION_TYPE":"U","NORAD_CAT_ID":52681,"ELEMENT_SET_NO":999,"REV_AT_EPOCH":21110,"BSTAR":-3.4283707e-5,"MEAN_MOTION_DOT":-8.33e-6,"MEAN_MOTION_DDOT":0},{"OBJECT_NAME":"CICERO 3","OBJECT_ID":"2017-042AA","EPOCH":"2026-03-09T22:34:09.559488","MEAN_MOTION":15.06999011,"ECCENTRICITY":0.00123402,"INCLINATION":97.4153,"RA_OF_ASC_NODE":238.2133,"ARG_OF_PERICENTER":85.148,"MEAN_ANOMALY":275.1157,"EPHEMERIS_TYPE":0,"CLASSIFICATION_TYPE":"U","NORAD_CAT_ID":42849,"ELEMENT_SET_NO":999,"REV_AT_EPOCH":47226,"BSTAR":0.00039473976,"MEAN_MOTION_DOT":5.861e-5,"MEAN_MOTION_DDOT":0}]
